{
  "type": "FeatureCollection",
  "features": [
    {
      "type": "Feature",
      "properties": {
        "norad_id": 30874,
        "name": "FENGYUN 1C DEB",
        "group": "fengyun-1c-debris",
        "lat": -22.498325359745778,
        "lon": -154.0466621480334,
        "alt_km": 860.0702641034668,
        "timestamp": "2025-12-25T09:48:52.569384+00:00",
        "meta_object_name": "FENGYUN 1C DEB",
        "meta_object_id": "1999-025AXL",
        "meta_epoch": "2025-12-23T21:54:49.279104",
        "meta_mean_motion": 14.19670231,
        "meta_eccentricity": 0.0041453,
        "meta_inclination": 98.4892,
        "meta_ra_of_asc_node": 28.0656,
        "meta_arg_of_pericenter": 8.2369,
        "meta_mean_anomaly": 113.7735,
        "meta_ephemeris_type": 0,
        "meta_classification_type": "U",
        "meta_norad_cat_id": 30874,
        "meta_element_set_no": 999,
        "meta_rev_at_epoch": 97179,
        "meta_bstar": 0.00042456,
        "meta_mean_motion_dot": 8.63e-06,
        "meta_mean_motion_ddot": 0,
        "tle_line1": "1 30874U 99025AXL 25357.91307036  .00000863  00000+0  42456-3 0  9998",
        "tle_line2": "2 30874  98.4892  28.0656 0041453   8.2369 113.7735 14.19670231971790"
      },
      "geometry": {
        "type": "Point",
        "coordinates": [
          -154.0466621480334,
          -22.498325359745778
        ]
      }
    },
    {
      "type": "Feature",
      "properties": {
        "norad_id": 30876,
        "name": "FENGYUN 1C DEB",
        "group": "fengyun-1c-debris",
        "lat": 52.94430069252982,
        "lon": -27.849990168706313,
        "alt_km": 939.3777214825204,
        "timestamp": "2025-12-25T09:48:52.569394+00:00",
        "meta_object_name": "FENGYUN 1C DEB",
        "meta_object_id": "1999-025AXN",
        "meta_epoch": "2025-12-24T21:41:05.074080",
        "meta_mean_motion": 13.99185069,
        "meta_eccentricity": 0.00663338,
        "meta_inclination": 98.8126,
        "meta_ra_of_asc_node": 343.5196,
        "meta_arg_of_pericenter": 243.4474,
        "meta_mean_anomaly": 145.9831,
        "meta_ephemeris_type": 0,
        "meta_classification_type": "U",
        "meta_norad_cat_id": 30876,
        "meta_element_set_no": 999,
        "meta_rev_at_epoch": 95880,
        "meta_bstar": 0.00047942802,
        "meta_mean_motion_dot": 6.66e-06,
        "meta_mean_motion_ddot": 0,
        "tle_line1": "1 30876U 99025AXN 25358.90353095  .00000666  00000+0  47943-3 0  9993",
        "tle_line2": "2 30876  98.8126 343.5196 0066333 243.4474 145.9831 13.99185069958802"
      },
      "geometry": {
        "type": "Point",
        "coordinates": [
          -27.849990168706313,
          52.94430069252982
        ]
      }
    },
    {
      "type": "Feature",
      "properties": {
        "norad_id": 30878,
        "name": "FENGYUN 1C DEB",
        "group": "fengyun-1c-debris",
        "lat": 29.869456725168515,
        "lon": -4.522739399228161,
        "alt_km": 870.6540525602386,
        "timestamp": "2025-12-25T09:48:52.569404+00:00",
        "meta_object_name": "FENGYUN 1C DEB",
        "meta_object_id": "1999-025AXQ",
        "meta_epoch": "2025-12-23T23:55:21.474048",
        "meta_mean_motion": 14.11908902,
        "meta_eccentricity": 0.0039875,
        "meta_inclination": 98.7207,
        "meta_ra_of_asc_node": 359.1615,
        "meta_arg_of_pericenter": 261.9345,
        "meta_mean_anomaly": 154.2284,
        "meta_ephemeris_type": 0,
        "meta_classification_type": "U",
        "meta_norad_cat_id": 30878,
        "meta_element_set_no": 999,
        "meta_rev_at_epoch": 96526,
        "meta_bstar": 0.00052443,
        "meta_mean_motion_dot": 9.22e-06,
        "meta_mean_motion_ddot": 0,
        "tle_line1": "1 30878U 99025AXQ 25357.99677632  .00000922  00000+0  52443-3 0  9995",
        "tle_line2": "2 30878  98.7207 359.1615 0039875 261.9345 154.2284 14.11908902965262"
      },
      "geometry": {
        "type": "Point",
        "coordinates": [
          -4.522739399228161,
          29.869456725168515
        ]
      }
    },
    {
      "type": "Feature",
      "properties": {
        "norad_id": 30879,
        "name": "FENGYUN 1C DEB",
        "group": "fengyun-1c-debris",
        "lat": 35.683998170669106,
        "lon": -148.93387861401706,
        "alt_km": 791.918016870829,
        "timestamp": "2025-12-25T09:48:52.569414+00:00",
        "meta_object_name": "FENGYUN 1C DEB",
        "meta_object_id": "1999-025AXR",
        "meta_epoch": "2025-12-23T13:28:40.753056",
        "meta_mean_motion": 14.6794774,
        "meta_eccentricity": 0.02000253,
        "meta_inclination": 99.3515,
        "meta_ra_of_asc_node": 215.753,
        "meta_arg_of_pericenter": 246.8904,
        "meta_mean_anomaly": 111.1104,
        "meta_ephemeris_type": 0,
        "meta_classification_type": "U",
        "meta_norad_cat_id": 30879,
        "meta_element_set_no": 999,
        "meta_rev_at_epoch": 62098,
        "meta_bstar": 0.0043903952,
        "meta_mean_motion_dot": 0.0003413,
        "meta_mean_motion_ddot": 0,
        "tle_line1": "1 30879U 99025AXR 25357.56158279  .00034130  00000+0  43904-2 0  9999",
        "tle_line2": "2 30879  99.3515 215.7530 0200025 246.8904 111.1104 14.67947740620989"
      },
      "geometry": {
        "type": "Point",
        "coordinates": [
          -148.93387861401706,
          35.683998170669106
        ]
      }
    },
    {
      "type": "Feature",
      "properties": {
        "norad_id": 30880,
        "name": "FENGYUN 1C DEB",
        "group": "fengyun-1c-debris",
        "lat": 81.03756980937482,
        "lon": -7.670600143146927,
        "alt_km": 783.9890997201173,
        "timestamp": "2025-12-25T09:48:52.569424+00:00",
        "meta_object_name": "FENGYUN 1C DEB",
        "meta_object_id": "1999-025AXS",
        "meta_epoch": "2025-12-24T21:36:46.418400",
        "meta_mean_motion": 14.2566963,
        "meta_eccentricity": 0.00214868,
        "meta_inclination": 98.7936,
        "meta_ra_of_asc_node": 70.7781,
        "meta_arg_of_pericenter": 73.0027,
        "meta_mean_anomaly": 287.3505,
        "meta_ephemeris_type": 0,
        "meta_classification_type": "U",
        "meta_norad_cat_id": 30880,
        "meta_element_set_no": 999,
        "meta_rev_at_epoch": 96887,
        "meta_bstar": 0.0013417005,
        "meta_mean_motion_dot": 3.145e-05,
        "meta_mean_motion_ddot": 0,
        "tle_line1": "1 30880U 99025AXS 25358.90053725  .00003145  00000+0  13417-2 0  9998",
        "tle_line2": "2 30880  98.7936  70.7781 0021486  73.0027 287.3505 14.25669630968873"
      },
      "geometry": {
        "type": "Point",
        "coordinates": [
          -7.670600143146927,
          81.03756980937482
        ]
      }
    },
    {
      "type": "Feature",
      "properties": {
        "norad_id": 30882,
        "name": "FENGYUN 1C DEB",
        "group": "fengyun-1c-debris",
        "lat": -23.860989993444864,
        "lon": -128.79757448859914,
        "alt_km": 709.2685615892333,
        "timestamp": "2025-12-25T09:48:52.569434+00:00",
        "meta_object_name": "FENGYUN 1C DEB",
        "meta_object_id": "1999-025AXU",
        "meta_epoch": "2025-12-24T21:35:29.328864",
        "meta_mean_motion": 14.86926866,
        "meta_eccentricity": 0.0151923,
        "meta_inclination": 97.9406,
        "meta_ra_of_asc_node": 54.2328,
        "meta_arg_of_pericenter": 1.0542,
        "meta_mean_anomaly": 359.0964,
        "meta_ephemeris_type": 0,
        "meta_classification_type": "U",
        "meta_norad_cat_id": 30882,
        "meta_element_set_no": 999,
        "meta_rev_at_epoch": 99835,
        "meta_bstar": 0.00097385468,
        "meta_mean_motion_dot": 0.00010706,
        "meta_mean_motion_ddot": 0,
        "tle_line1": "1 30882U 99025AXU 25358.89964501  .00010706  00000+0  97385-3 0  9999",
        "tle_line2": "2 30882  97.9406  54.2328 0151923   1.0542 359.0964 14.86926866998351"
      },
      "geometry": {
        "type": "Point",
        "coordinates": [
          -128.79757448859914,
          -23.860989993444864
        ]
      }
    },
    {
      "type": "Feature",
      "properties": {
        "norad_id": 30883,
        "name": "FENGYUN 1C DEB",
        "group": "fengyun-1c-debris",
        "lat": 7.182563031274182,
        "lon": -143.2418951691924,
        "alt_km": 764.7960262200995,
        "timestamp": "2025-12-25T09:48:52.569444+00:00",
        "meta_object_name": "FENGYUN 1C DEB",
        "meta_object_id": "1999-025AXV",
        "meta_epoch": "2025-12-23T20:29:21.267168",
        "meta_mean_motion": 14.14557634,
        "meta_eccentricity": 0.01124428,
        "meta_inclination": 98.3605,
        "meta_ra_of_asc_node": 34.2395,
        "meta_arg_of_pericenter": 181.8091,
        "meta_mean_anomaly": 355.5711,
        "meta_ephemeris_type": 0,
        "meta_classification_type": "U",
        "meta_norad_cat_id": 30883,
        "meta_element_set_no": 999,
        "meta_rev_at_epoch": 97074,
        "meta_bstar": 0.00016040915,
        "meta_mean_motion_dot": 2.87e-06,
        "meta_mean_motion_ddot": 0,
        "tle_line1": "1 30883U 99025AXV 25357.85371837  .00000287  00000+0  16041-3 0  9992",
        "tle_line2": "2 30883  98.3605  34.2395 0112442 181.8091 355.5711 14.14557634970747"
      },
      "geometry": {
        "type": "Point",
        "coordinates": [
          -143.2418951691924,
          7.182563031274182
        ]
      }
    }
  ]
}